DMSP 5D-3 F16 (USA 172) 
1 28054U 03048A   26166.31601052  .00000006  00000+0  26938-4 0  9990
2 28054  98.9891 190.1320 0007675 145.0843 227.9800 14.14483035169222
METEOSAT-9 (MSG-2)      
1 28912U 05049B   26165.95824632  .00000122  00000+0  00000+0 0  9992
2 28912   9.3563  54.1897 0001586 342.1562 257.5139  1.00271050  6977
DMSP 5D-3 F17 (USA 191) 
1 29522U 06050A   26166.26049107  .00000033  00000+0  39519-4 0  9997
2 29522  98.7378 172.8700 0011215  64.4287 295.8045 14.14992907 12158
FENGYUN 3A              
1 32958U 08026A   26166.28524038  .00000048  00000+0  43452-4 0  9999
2 32958  98.6883 107.1539 0009518 128.6073 231.5957 14.19570736935133
GOES 14                 
1 35491U 09033A   26166.28735468 -.00000281  00000+0  00000+0 0  9991
2 35491   1.6853  83.0637 0001705  10.8284  56.0558  1.00111361  6571
DMSP 5D-3 F18 (USA 210) 
1 35951U 09057A   26166.23174240  .00000194  00000+0  12372-3 0  9999
2 35951  98.9037 147.0051 0009867 255.7548 104.2529 14.14895681859311
EWS-G2 (GOES 15)        
1 36411U 10008A   26166.20302918  .00000021  00000+0  00000+0 0  9991
2 36411   1.2724  82.8866 0005364  42.1201 275.2720  1.00275679 59612
COMS 1                  
1 36744U 10032A   26165.90754437  .00000023  00000+0  00000+0 0  9992
2 36744   4.7990  75.3807 0011440  11.6720 225.4123  0.99162575 51067
FENGYUN 3B              
1 37214U 10059A   26166.25836870  .00000082  00000+0  65554-4 0  9990
2 37214  98.9625 212.2646 0021814 189.5716 259.2089 14.14841756807151
SUOMI NPP               
1 37849U 11061A   26166.29644737  .00000055  00000+0  47190-4 0  9997
2 37849  98.7954 107.1854 0001641  11.4935 348.6278 14.19516984758170
METEOSAT-10 (MSG-3)     
1 38552U 12035B   26166.04516218 -.00000003  00000+0  00000+0 0  9994
2 38552   4.6666  61.0299 0001439 327.8693 251.0167  1.00276414 50838
METOP-B                 
1 38771U 12049A   26166.21866773  .00000090  00000+0  61046-4 0  9992
2 38771  98.6505 217.7570 0002351  24.5157 335.6132 14.21432190712982
INSAT-3D                
1 39216U 13038B   26166.28466801 -.00000337  00000+0  00000+0 0  9994
2 39216   1.9213  82.5631 0000545 307.5014 105.5065  1.00269977 47068
FENGYUN 3C              
1 39260U 13052A   26166.20630358  .00000042  00000+0  42525-4 0  9996
2 39260  98.4986 140.1720 0015348  33.1010 327.1123 14.15754566658282
METEOR-M 2              
1 40069U 14037A   26166.24507131  .00000201  00000+0  11098-3 0  9992
2 40069  98.5106 142.0521 0006845  49.1520 311.0251 14.21461809619048
HIMAWARI-8              
1 40267U 14060A   26166.28692134 -.00000272  00000+0  00000+0 0  9996
2 40267   0.0136 338.0012 0000963 108.8975  60.6297  1.00272179 42740
FENGYUN 2G              
1 40367U 14090A   26165.77976201 -.00000301  00000+0  00000+0 0  9996
2 40367   5.6329  72.8457 0003942 155.9654  54.6513  1.00273198 41979
METEOSAT-11 (MSG-4)     
1 40732U 15034A   26166.26092124  .00000067  00000+0  00000+0 0  9997
2 40732   3.1967  71.1216 0001755  10.4371 285.5308  1.00279763  7199
ELEKTRO-L 2             
1 41105U 15074A   26165.97095833 -.00000118  00000+0  00000+0 0  9991
2 41105   6.6873  70.5494 0000874 244.3322 283.4193  1.00270489 38485
SENTINEL-3A             
1 41335U 16011A   26166.25292140  .00000093  00000+0  56267-4 0  9992
2 41335  98.6249 233.6643 0001390 102.3738 257.7599 14.26739467537783
INSAT-3DR               
1 41752U 16054A   26166.16830670 -.00000072  00000+0  00000+0 0  9995
2 41752   0.1013  86.6369 0010646 187.2349 124.1504  1.00270784 35795
HIMAWARI-9              
1 41836U 16064A   26166.28692134 -.00000271  00000+0  00000+0 0  9994
2 41836   0.0513 145.0850 0000815 355.9022   6.6443  1.00269638 35192
GOES 16                 
1 41866U 16071A   26166.23833212 -.00000087  00000+0  00000+0 0  9999
2 41866   0.3363  85.5242 0000205 301.5065 217.6041  1.00270902 35083
FENGYUN 4A              
1 41882U 16077A   26166.28354133 -.00000355  00000+0  00000+0 0  9996
2 41882   2.3167  80.3006 0008691 153.1404 255.9776  1.00269516 34911
CYGFM05                 
1 41884U 16078A   26165.67827459  .00021186  00000+0  28816-3 0  9990
2 41884  34.9575 277.2022 0006760 125.1735 234.9624 15.56575412528360
CYGFM04                 
1 41885U 16078B   26165.59272530  .00027283  00000+0  30860-3 0  9992
2 41885  34.9324 245.5899 0006328 171.1834 188.9003 15.61388565528595
CYGFM02                 
1 41886U 16078C   26165.59836275  .00032073  00000+0  32246-3 0  9998
2 41886  34.9402 240.1637 0007349 172.2814 187.8027 15.64358647528762
CYGFM01                 
1 41887U 16078D   26165.98861430  .00022894  00000+0  30335-3 0  9990
2 41887  34.9403 276.2228 0006582 122.4627 237.6734 15.57263232528369
CYGFM08                 
1 41888U 16078E   26165.95185982  .00026253  00000+0  31413-3 0  9990
2 41888  34.9431 256.1039 0008096 155.9928 204.1175 15.59919693528623
CYGFM07                 
1 41890U 16078G   26165.65516751  .00025184  00000+0  30057-3 0  9997
2 41890  34.9444 246.4236 0006750 170.4422 189.6433 15.60005273528601
CYGFM03                 
1 41891U 16078H   26165.62616195  .00025393  00000+0  30321-3 0  9994
2 41891  34.9400 248.5547 0006142 157.6491 202.4503 15.59996653528577
